      2.10          N: GNSS NAV DATA                        RINEX VERSION / TYPE
fic2rin                                 09/18/2019 00:19:12 PGM / RUN BY / DATE
                                                            END OF HEADER
32 19  9 17 17 59 44.0 6.032176315784e-05 1.364242052659e-11 0.000000000000e+00
    9.000000000000e+00-1.100000000000e+01 4.495901558060e-09 7.830795055360e-01
   -5.364418029785e-07 3.230724600144e-03 1.155957579613e-05 5.153634721756e+03
    2.375840000000e+05 5.215406417847e-08-2.902467758221e+00 2.980232238770e-08
    9.572357862213e-01 1.551250000000e+02-2.505296294572e+00-8.024262814183e-09
   -3.739441477033e-10 1.000000000000e+00 2.071000000000e+03 0.000000000000e+00
    2.400000000000e+00 0.000000000000e+00 4.656612873077e-10 9.000000000000e+00
    2.304000000000e+05 4.000000000000e+00
 2 19  9 17 18  0  0.0-3.071059472859e-04-8.071765478235e-12 0.000000000000e+00
    6.500000000000e+01 4.937500000000e+01 4.693052627337e-09-1.865052268673e+00
    2.866610884666e-06 1.912539661862e-02 7.500872015953e-06 5.153537218094e+03
    2.376000000000e+05 2.998858690262e-07 1.228593816870e+00 2.309679985046e-07
    9.558346471725e-01 2.280000000000e+02-1.714334958006e+00-7.955688529218e-09
    5.232360805973e-10 1.000000000000e+00 2.071000000000e+03 0.000000000000e+00
    2.400000000000e+00 0.000000000000e+00-2.048909664154e-08 6.500000000000e+01
    2.304000000000e+05 4.000000000000e+00
 1 19  9 17 18  0  0.0-1.320238225162e-04-1.261923898710e-11 0.000000000000e+00
    5.400000000000e+01 4.356250000000e+01 4.324823003380e-09-2.133158257301e+00
    2.078711986542e-06 9.117849403992e-03 7.899478077888e-06 5.153644596100e+03
    2.376000000000e+05 1.527369022369e-07 1.299677331109e+00-7.636845111847e-08
    9.767120476344e-01 2.339687500000e+02 7.636429989218e-01-7.883899824644e-09
    6.296690853877e-10 1.000000000000e+00 2.071000000000e+03 0.000000000000e+00
    2.400000000000e+00 0.000000000000e+00 5.587935447693e-09 5.400000000000e+01
    2.304000000000e+05 4.000000000000e+00
 5 19  9 17 18  0  0.0-1.497566699982e-06-3.410605131648e-13 0.000000000000e+00
    3.600000000000e+01-3.162500000000e+01 5.283434361963e-09 7.549636844335e-01
   -1.408159732819e-06 5.892893299460e-03 4.753470420837e-06 5.153760761261e+03
    2.376000000000e+05 3.725290298462e-08 2.313595415838e+00 4.656612873077e-08
    9.505501613611e-01 2.820937500000e+02 7.843584221681e-01-8.612144444670e-09
   -2.621537768999e-10 1.000000000000e+00 2.071000000000e+03 0.000000000000e+00
    2.400000000000e+00 0.000000000000e+00-1.117587089539e-08 3.600000000000e+01
    2.304000000000e+05 4.000000000000e+00
 3 19  9 17 18  0  0.0-1.201499253511e-05-4.092726157978e-12 0.000000000000e+00
    7.300000000000e+01-3.403125000000e+01 4.873417283106e-09 3.039478097023e+00
   -1.849606633186e-06 2.522600232624e-03 5.111098289490e-06 5.153705310822e+03
    2.376000000000e+05-5.960464477539e-08 2.341996466468e+00-6.146728992462e-08
    9.636914696179e-01 2.808125000000e+02 7.415779254915e-01-8.273916070386e-09
   -2.246522148093e-10 1.000000000000e+00 2.071000000000e+03 0.000000000000e+00
    2.400000000000e+00 0.000000000000e+00 1.862645149231e-09 7.300000000000e+01
    2.304000000000e+05 4.000000000000e+00
 6 19  9 17 18  0  0.0-6.061745807528e-05-1.250555214938e-11 0.000000000000e+00
    4.500000000000e+01 4.212500000000e+01 4.362681723205e-09-1.798775644306e+00
    2.311542630196e-06 1.370839891024e-03 7.791444659233e-06 5.153657264709e+03
    2.376000000000e+05-3.166496753693e-08 1.291401340209e+00 1.862645149231e-09
    9.763391381126e-01 2.396562500000e+02-1.143366651182e+00-7.940687904382e-09
    4.857345185067e-10 1.000000000000e+00 2.071000000000e+03 0.000000000000e+00
    2.400000000000e+00 0.000000000000e+00 4.190951585770e-09 4.500000000000e+01
    2.304000000000e+05 4.000000000000e+00
22 19  9 17 18  0  0.0-7.557701319456e-04-3.751665644813e-12 0.000000000000e+00
    4.400000000000e+01-2.915625000000e+01 5.815242228181e-09-8.529778864327e-01
   -1.514330506325e-06 6.926164031029e-03 4.570931196213e-06 5.153698394775e+03
    2.376000000000e+05-1.192092895508e-07 2.264791392006e+00-6.146728992462e-08
    9.282768298388e-01 2.741562500000e+02-1.286094189408e+00-8.929300512636e-09
   -1.053615315878e-10 1.000000000000e+00 2.071000000000e+03 0.000000000000e+00
    2.400000000000e+00 0.000000000000e+00-1.816079020500e-08 4.400000000000e+01
    2.304000000000e+05 4.000000000000e+00
16 19  9 17 18  0  0.0-7.500033825636e-05-3.524291969370e-12 0.000000000000e+00
    3.200000000000e+01-4.509375000000e+01 4.251248510136e-09 1.009809520266e+00
   -2.210959792137e-06 1.078378956299e-02 4.459172487259e-06 5.153633924484e+03
    2.376000000000e+05-1.508742570877e-07-7.128733515451e-01 1.061707735062e-07
    9.817075427568e-01 3.060000000000e+02 5.808677344898e-01-8.221413883460e-09
   -3.710868858297e-10 1.000000000000e+00 2.071000000000e+03 0.000000000000e+00
    2.400000000000e+00 0.000000000000e+00-1.071020960808e-08 3.200000000000e+01
    2.304000000000e+05 4.000000000000e+00
10 19  9 17 18  0  0.0-5.762698128819e-05-1.534772309242e-11 0.000000000000e+00
    2.300000000000e+01-3.706250000000e+01 4.942348725805e-09 2.165078780153e+00
   -1.853331923485e-06 4.832950304262e-03 4.958361387253e-06 5.153659343719e+03
    2.376000000000e+05-1.750886440277e-07 2.338818212572e+00 3.539025783539e-08
    9.636855360221e-01 2.868750000000e+02-2.734074856895e+00-8.325703941845e-09
   -1.932223342001e-10 1.000000000000e+00 2.071000000000e+03 0.000000000000e+00
    2.400000000000e+00 0.000000000000e+00 1.862645149231e-09 2.300000000000e+01
    2.304000000000e+05 4.000000000000e+00
 8 19  9 17 18  0  0.0-6.791669875383e-06-1.250555214938e-12 0.000000000000e+00
    1.200000000000e+01-5.718750000000e+01 4.040882604694e-09 2.347747621684e-01
   -2.896413207054e-06 4.445063066669e-03 1.090951263905e-05 5.153560831070e+03
    2.376000000000e+05 1.098960638046e-07 2.322710129857e-01-4.656612873077e-08
    9.705606906971e-01 1.738750000000e+02-2.317207699973e-01-7.904614973228e-09
   -8.500354073867e-11 1.000000000000e+00 2.071000000000e+03 0.000000000000e+00
    2.400000000000e+00 0.000000000000e+00 5.122274160385e-09 1.200000000000e+01
    2.304000000000e+05 4.000000000000e+00
 7 19  9 17 18  0  0.0-1.083775423467e-04-7.958078640513e-12 0.000000000000e+00
    5.200000000000e+01 8.396875000000e+01 4.607691928864e-09-2.772181875977e+00
    4.211440682411e-06 1.317032915540e-02 7.143244147301e-06 5.153734571457e+03
    2.376000000000e+05 3.539025783539e-08-1.834335557702e+00-2.216547727585e-07
    9.544755523894e-01 2.367187500000e+02-2.430199523519e+00-8.039263439020e-09
    3.417999516257e-10 1.000000000000e+00 2.071000000000e+03 0.000000000000e+00
    2.400000000000e+00 0.000000000000e+00-1.117587089539e-08 5.200000000000e+01
    2.304000000000e+05 4.000000000000e+00
27 19  9 17 18  0  0.0-5.872733891010e-05-1.227817847393e-11 0.000000000000e+00
    3.200000000000e+01-5.306250000000e+01 3.934449599904e-09 5.498732504852e-02
   -2.661719918251e-06 7.191685726866e-03 1.123920083046e-05 5.153656805038e+03
    2.376000000000e+05 1.229345798492e-07 2.445131196272e-01 6.146728992462e-08
    9.788921174144e-01 1.742187500000e+02 5.129976470854e-01-7.861398887390e-09
   -7.250302004181e-11 1.000000000000e+00 2.071000000000e+03 0.000000000000e+00
    2.400000000000e+00 0.000000000000e+00 1.396983861923e-09 3.200000000000e+01
    2.304000000000e+05 4.000000000000e+00
25 19  9 17 18  0  0.0-1.253606751561e-05-1.477928890381e-12 0.000000000000e+00
    3.300000000000e+01-3.990625000000e+01 4.455185576362e-09 2.463282655164e+00
   -2.134591341019e-06 8.408577414230e-03 3.838911652565e-06 5.153656419754e+03
    2.376000000000e+05 1.676380634308e-08-7.975125236435e-01-1.695007085800e-07
    9.687219445745e-01 3.090000000000e+02 8.969378988466e-01-8.169983169735e-09
   -1.689356082747e-10 1.000000000000e+00 2.071000000000e+03 0.000000000000e+00
    2.400000000000e+00 0.000000000000e+00 5.587935447693e-09 3.300000000000e+01
    2.304000000000e+05 4.000000000000e+00
30 19  9 17 18  0  0.0-4.273559898138e-05-7.958078640513e-12 0.000000000000e+00
    4.400000000000e+01 7.706250000000e+01 5.051638992469e-09-2.821313716344e+00
    3.933906555176e-06 4.208262544125e-03 6.737187504768e-06 5.153755428314e+03
    2.376000000000e+05-5.960464477539e-08-1.807846783847e+00-4.842877388000e-08
    9.398736213718e-01 2.379375000000e+02-2.899283717021e+00-8.362491188467e-09
    2.600108304947e-10 1.000000000000e+00 2.071000000000e+03 0.000000000000e+00
    2.400000000000e+00 0.000000000000e+00 3.725290298462e-09 4.400000000000e+01
    2.304000000000e+05 4.000000000000e+00
24 19  9 17 18  0  0.0-2.281740307808e-06-4.547473508865e-13 0.000000000000e+00
    4.900000000000e+01 8.362500000000e+01 4.976993026022e-09-1.844509841341e+00
    4.353001713753e-06 8.661069092341e-03 6.929039955139e-06 5.153701753616e+03
    2.376000000000e+05 3.725290298462e-09-1.902239764744e+00-1.378357410431e-07
    9.377218736857e-01 2.354687500000e+02 6.059503427097e-01-8.239628927904e-09
    3.003696544589e-10 1.000000000000e+00 2.071000000000e+03 0.000000000000e+00
    2.400000000000e+00 0.000000000000e+00 2.793967723846e-09 4.900000000000e+01
    2.304000000000e+05 4.000000000000e+00
15 19  9 17 18  0  0.0-2.862745895982e-04 2.728484105319e-12 0.000000000000e+00
    2.900000000000e+01-2.053125000000e+01 5.187358931464e-09-8.424014407613e-01
   -1.054257154465e-06 1.170981035102e-02 1.023337244987e-05 5.153570844650e+03
    2.376000000000e+05 1.192092895508e-07-2.992574785597e+00 2.700835466385e-07
    9.285404271959e-01 1.645625000000e+02 8.091604192936e-01-8.402850012431e-09
   -3.889447725395e-10 1.000000000000e+00 2.071000000000e+03 0.000000000000e+00
    2.400000000000e+00 0.000000000000e+00-1.071020960808e-08 2.900000000000e+01
    2.304000000000e+05 4.000000000000e+00
